CCSDS_OMM_VERS = 2.0
CREATION_DATE  = 
ORIGINATOR     = 

OBJECT_NAME    = ISS OBJECT XK
OBJECT_ID      = 1998-067XK
CENTER_NAME    = EARTH
REF_FRAME      = TEME
TIME_SYSTEM    = UTC
MEAN_ELEMENT_THEORY = SGP/SGP4

EPOCH          = 2026-02-27T12:05:14.102016
MEAN_MOTION    = 15.99162927
ECCENTRICITY   = .0007189
INCLINATION    = 51.6190
RA_OF_ASC_NODE = 100.7577
ARG_OF_PERICENTER = 28.6499
MEAN_ANOMALY   = 331.4904

EPHEMERIS_TYPE = 0
CLASSIFICATION_TYPE = U
NORAD_CAT_ID   = 65731
ELEMENT_SET_NO = 999
REV_AT_EPOCH   = 2526
BSTAR          = .12327E-2
MEAN_MOTION_DOT = .616656E-2
MEAN_MOTION_DDOT = .17816E-3

CCSDS_OMM_VERS = 2.0
CREATION_DATE  = 
ORIGINATOR     = 

OBJECT_NAME    = YOTSUBA-KULOVER
OBJECT_ID      = 1998-067XN
CENTER_NAME    = EARTH
REF_FRAME      = TEME
TIME_SYSTEM    = UTC
MEAN_ELEMENT_THEORY = SGP/SGP4

EPOCH          = 2026-02-27T09:14:07.157184
MEAN_MOTION    = 15.76267694
ECCENTRICITY   = .0006048
INCLINATION    = 51.6226
RA_OF_ASC_NODE = 110.5650
ARG_OF_PERICENTER = 9.8005
MEAN_ANOMALY   = 350.3112

EPHEMERIS_TYPE = 0
CLASSIFICATION_TYPE = U
NORAD_CAT_ID   = 65941
ELEMENT_SET_NO = 999
REV_AT_EPOCH   = 2187
BSTAR          = .99164E-3
MEAN_MOTION_DOT = .161857E-2
MEAN_MOTION_DDOT = 0

CCSDS_OMM_VERS = 2.0
CREATION_DATE  = 
ORIGINATOR     = 

OBJECT_NAME    = BOTAN
OBJECT_ID      = 1998-067XP
CENTER_NAME    = EARTH
REF_FRAME      = TEME
TIME_SYSTEM    = UTC
MEAN_ELEMENT_THEORY = SGP/SGP4

EPOCH          = 2026-02-27T09:42:52.261056
MEAN_MOTION    = 16.07024036
ECCENTRICITY   = .0008758
INCLINATION    = 51.6107
RA_OF_ASC_NODE = 103.8208
ARG_OF_PERICENTER = 26.8522
MEAN_ANOMALY   = 333.2942

EPHEMERIS_TYPE = 0
CLASSIFICATION_TYPE = U
NORAD_CAT_ID   = 65942
ELEMENT_SET_NO = 999
REV_AT_EPOCH   = 2196
BSTAR          = .16913E-2
MEAN_MOTION_DOT = .133981E-1
MEAN_MOTION_DDOT = .11118E-2

CCSDS_OMM_VERS = 2.0
CREATION_DATE  = 
ORIGINATOR     = 

OBJECT_NAME    = E-KAGAKU-1
OBJECT_ID      = 1998-067XQ
CENTER_NAME    = EARTH
REF_FRAME      = TEME
TIME_SYSTEM    = UTC
MEAN_ELEMENT_THEORY = SGP/SGP4

EPOCH          = 2026-02-27T12:20:32.229024
MEAN_MOTION    = 15.76093884
ECCENTRICITY   = .0006221
INCLINATION    = 51.6246
RA_OF_ASC_NODE = 109.9440
ARG_OF_PERICENTER = 19.1629
MEAN_ANOMALY   = 340.9603

EPHEMERIS_TYPE = 0
CLASSIFICATION_TYPE = U
NORAD_CAT_ID   = 65943
ELEMENT_SET_NO = 999
REV_AT_EPOCH   = 2189
BSTAR          = .9701E-3
MEAN_MOTION_DOT = .157036E-2
MEAN_MOTION_DDOT = 0

CCSDS_OMM_VERS = 2.0
CREATION_DATE  = 
ORIGINATOR     = 

OBJECT_NAME    = HRC MONOBLOCK CAMERA
OBJECT_ID      = 1998-067XR
CENTER_NAME    = EARTH
REF_FRAME      = TEME
TIME_SYSTEM    = UTC
MEAN_ELEMENT_THEORY = SGP/SGP4

EPOCH          = 2026-02-27T09:31:50.199456
MEAN_MOTION    = 15.60992325
ECCENTRICITY   = .000317
INCLINATION    = 51.6283
RA_OF_ASC_NODE = 117.4313
ARG_OF_PERICENTER = 49.9480
MEAN_ANOMALY   = 310.1791

EPHEMERIS_TYPE = 0
CLASSIFICATION_TYPE = U
NORAD_CAT_ID   = 66052
ELEMENT_SET_NO = 999
REV_AT_EPOCH   = 2078
BSTAR          = .57057E-3
MEAN_MOTION_DOT = .48635E-3
MEAN_MOTION_DDOT = 0

CCSDS_OMM_VERS = 2.0
CREATION_DATE  = 
ORIGINATOR     = 

OBJECT_NAME    = HTV-X1
OBJECT_ID      = 2025-241A
CENTER_NAME    = EARTH
REF_FRAME      = TEME
TIME_SYSTEM    = UTC
MEAN_ELEMENT_THEORY = SGP/SGP4

EPOCH          = 2026-02-27T12:14:12.616800
MEAN_MOTION    = 15.48339371
ECCENTRICITY   = .0008329
INCLINATION    = 51.6324
RA_OF_ASC_NODE = 122.6808
ARG_OF_PERICENTER = 139.0697
MEAN_ANOMALY   = 221.0918

EPHEMERIS_TYPE = 0
CLASSIFICATION_TYPE = U
NORAD_CAT_ID   = 66174
ELEMENT_SET_NO = 999
REV_AT_EPOCH   = 55447
BSTAR          = .23882E-3
MEAN_MOTION_DOT = .12441E-3
MEAN_MOTION_DDOT = 0

CCSDS_OMM_VERS = 2.0
CREATION_DATE  = 
ORIGINATOR     = 

OBJECT_NAME    = SZ-21 MODULE
OBJECT_ID      = 2025-246C
CENTER_NAME    = EARTH
REF_FRAME      = TEME
TIME_SYSTEM    = UTC
MEAN_ELEMENT_THEORY = SGP/SGP4

EPOCH          = 2026-02-27T15:05:25.801440
MEAN_MOTION    = 15.67676592
ECCENTRICITY   = .0001444
INCLINATION    = 41.4741
RA_OF_ASC_NODE = 265.2556
ARG_OF_PERICENTER = 287.0707
MEAN_ANOMALY   = 72.9977

EPHEMERIS_TYPE = 0
CLASSIFICATION_TYPE = U
NORAD_CAT_ID   = 66515
ELEMENT_SET_NO = 999
REV_AT_EPOCH   = 1649
BSTAR          = .31215E-3
MEAN_MOTION_DOT = .34956E-3
MEAN_MOTION_DDOT = 0

CCSDS_OMM_VERS = 2.0
CREATION_DATE  = 
ORIGINATOR     = 

OBJECT_NAME    = SHENZHOU-22
OBJECT_ID      = 2025-272A
CENTER_NAME    = EARTH
REF_FRAME      = TEME
TIME_SYSTEM    = UTC
MEAN_ELEMENT_THEORY = SGP/SGP4

EPOCH          = 2026-02-27T16:00:48.430080
MEAN_MOTION    = 15.60189506
ECCENTRICITY   = .0006216
INCLINATION    = 41.4656
RA_OF_ASC_NODE = 269.1240
ARG_OF_PERICENTER = 208.9469
MEAN_ANOMALY   = 151.1026

EPHEMERIS_TYPE = 0
CLASSIFICATION_TYPE = U
NORAD_CAT_ID   = 66645
ELEMENT_SET_NO = 999
REV_AT_EPOCH   = 26754
BSTAR          = .25948E-3
MEAN_MOTION_DOT = .21477E-3
MEAN_MOTION_DDOT = 0

CCSDS_OMM_VERS = 2.0
CREATION_DATE  = 
ORIGINATOR     = 

OBJECT_NAME    = SOYUZ-MS 28
OBJECT_ID      = 2025-275A
CENTER_NAME    = EARTH
REF_FRAME      = TEME
TIME_SYSTEM    = UTC
MEAN_ELEMENT_THEORY = SGP/SGP4

EPOCH          = 2026-02-27T12:14:12.616800
MEAN_MOTION    = 15.48339371
ECCENTRICITY   = .0008329
INCLINATION    = 51.6324
RA_OF_ASC_NODE = 122.6808
ARG_OF_PERICENTER = 139.0697
MEAN_ANOMALY   = 221.0918

EPHEMERIS_TYPE = 0
CLASSIFICATION_TYPE = U
NORAD_CAT_ID   = 66664
ELEMENT_SET_NO = 999
REV_AT_EPOCH   = 55452
BSTAR          = .23882E-3
MEAN_MOTION_DOT = .12441E-3
MEAN_MOTION_DDOT = 0

CCSDS_OMM_VERS = 2.0
CREATION_DATE  = 
ORIGINATOR     = 

OBJECT_NAME    = DUPLEX
OBJECT_ID      = 1998-067XS
CENTER_NAME    = EARTH
REF_FRAME      = TEME
TIME_SYSTEM    = UTC
MEAN_ELEMENT_THEORY = SGP/SGP4

EPOCH          = 2026-02-27T10:30:05.461344
MEAN_MOTION    = 15.55480563
ECCENTRICITY   = .000184
INCLINATION    = 51.6294
RA_OF_ASC_NODE = 120.7016
ARG_OF_PERICENTER = 82.9676
MEAN_ANOMALY   = 277.1524

EPHEMERIS_TYPE = 0
CLASSIFICATION_TYPE = U
NORAD_CAT_ID   = 66906
ELEMENT_SET_NO = 999
REV_AT_EPOCH   = 1353
BSTAR          = .50427E-3
MEAN_MOTION_DOT = .34745E-3
MEAN_MOTION_DDOT = 0

CCSDS_OMM_VERS = 2.0
CREATION_DATE  = 
ORIGINATOR     = 

OBJECT_NAME    = ISS OBJECT XT
OBJECT_ID      = 1998-067XT
CENTER_NAME    = EARTH
REF_FRAME      = TEME
TIME_SYSTEM    = UTC
MEAN_ELEMENT_THEORY = SGP/SGP4

EPOCH          = 2026-02-27T10:42:32.708160
MEAN_MOTION    = 15.66015368
ECCENTRICITY   = .0004212
INCLINATION    = 51.6259
RA_OF_ASC_NODE = 117.7515
ARG_OF_PERICENTER = 20.2087
MEAN_ANOMALY   = 339.9075

EPHEMERIS_TYPE = 0
CLASSIFICATION_TYPE = U
NORAD_CAT_ID   = 66907
ELEMENT_SET_NO = 999
REV_AT_EPOCH   = 1357
BSTAR          = .1187E-2
MEAN_MOTION_DOT = .125241E-2
MEAN_MOTION_DDOT = 0

CCSDS_OMM_VERS = 2.0
CREATION_DATE  = 
ORIGINATOR     = 

OBJECT_NAME    = ISS OBJECT XU
OBJECT_ID      = 1998-067XU
CENTER_NAME    = EARTH
REF_FRAME      = TEME
TIME_SYSTEM    = UTC
MEAN_ELEMENT_THEORY = SGP/SGP4

EPOCH          = 2026-02-27T09:08:57.503040
MEAN_MOTION    = 15.66080351
ECCENTRICITY   = .0004253
INCLINATION    = 51.6254
RA_OF_ASC_NODE = 118.0643
ARG_OF_PERICENTER = 22.3654
MEAN_ANOMALY   = 337.7526

EPHEMERIS_TYPE = 0
CLASSIFICATION_TYPE = U
NORAD_CAT_ID   = 66908
ELEMENT_SET_NO = 999
REV_AT_EPOCH   = 1356
BSTAR          = .11932E-2
MEAN_MOTION_DOT = .126246E-2
MEAN_MOTION_DDOT = 0

